<?xml version="1.0" encoding="UTF-8"?>
<kml xmlns="http://www.opengis.net/kml/2.2" xmlns:atom="http://www.w3.org/2005/Atom">
<Document>
<atom:author><atom:name>Gaia GPS on Android</atom:name></atom:author>
<Style id="track-line"><LineStyle><color>7f0000ff</color><width>4</width></LineStyle><PolyStyle><color>400000ff</color><outline>1</outline></PolyStyle></Style>
<Style id="track-start-pin"><IconStyle><scale>1.3</scale><Icon><href>http://maps.google.com/mapfiles/kml/paddle/grn-circle.png</href></Icon><hotSpot x="32" y="1" xunits="pixels" yunits="pixels"/></IconStyle></Style>
<Style id="track-end-pin"><IconStyle><scale>1.3</scale><Icon><href>http://maps.google.com/mapfiles/kml/paddle/red-circle.png</href></Icon><hotSpot x="32" y="1" xunits="pixels" yunits="pixels"/></IconStyle></Style>
<Style id="waypoint-pin"><IconStyle><scale>1.3</scale><Icon><href>http://maps.google.com/mapfiles/kml/pushpin/blue-pushpin.png</href></Icon><hotSpot x="20" y="2" xunits="pixels" yunits="pixels"/></IconStyle></Style>
<Placemark>
  <name><![CDATA[Puntos de referencia 3/8/2026, 10:22:17 a. m.]]></name>
  <description><![CDATA[Location: 19.0811, -98.557915<br/>
Time Created: 3/8/2026, 10:22:17 a. m.<br/>
Notes: estacionamiento 

]]></description>
  <TimeStamp><when>2026-08-03T16:22:17Z</when></TimeStamp>
  <styleUrl>#waypoint-pin</styleUrl>
  <Point>
    <coordinates>-98.557915,19.0811,0</coordinates>
  </Point>
</Placemark>
</Document>
</kml>
